[{"OBJECT_NAME":"YUNHAI-2 02E","OBJECT_ID":"2024-052E","EPOCH":"2026-03-09T23:04:08.218272","MEAN_MOTION":14.27923834,"ECCENTRICITY":0.00117453,"INCLINATION":50.0117,"RA_OF_ASC_NODE":23.2487,"ARG_OF_PERICENTER":69.3739,"MEAN_ANOMALY":290.8434,"EPHEMERIS_TYPE":0,"CLASSIFICATION_TYPE":"U","NORAD_CAT_ID":59284,"ELEMENT_SET_NO":999,"REV_AT_EPOCH":9275,"BSTAR":0.0001398659,"MEAN_MOTION_DOT":1.88e-6,"MEAN_MOTION_DDOT":0},{"OBJECT_NAME":"ORBCOMM FM05 DEB","OBJECT_ID":"1997-084X","EPOCH":"2026-03-08T23:46:48.302112","MEAN_MOTION":14.32889351,"ECCENTRICITY":0.0036164,"INCLINATION":45.0137,"RA_OF_ASC_NODE":305.0854,"ARG_OF_PERICENTER":201.7772,"MEAN_ANOMALY":158.1538,"EPHEMERIS_TYPE":0,"CLASSIFICATION_TYPE":"U","NORAD_CAT_ID":51448,"ELEMENT_SET_NO":999,"REV_AT_EPOCH":22242,"BSTAR":0.00015260614,"MEAN_MOTION_DOT":2.83e-6,"MEAN_MOTION_DDOT":0}]
